ONEWEB-0533             
1 55141U 23004B   26048.46010580 -.00000295  00000+0 -85601-3 0  9999
2 55141  87.8975  14.4282 0001770  77.6003 282.5323 13.12443142152357
ONEWEB-0541             
1 55142U 23004C   26049.00673628 -.00000426  00000+0 -12371-2 0  9998
2 55142  87.8832  44.7566 0002006  87.9853 272.1505 13.11416367150321
ONEWEB-0543             
1 55143U 23004D   26049.26535590 -.00000001  00000+0 -35187-4 0  9993
2 55143  87.9212 359.0940 0001582  85.2983 274.8330 13.18685357154026
ONEWEB-0544             
1 55144U 23004E   26049.25875445  .00000155  00000+0  36081-3 0  9990
2 55144  87.9226 359.0896 0001901  88.9429 271.1921 13.18686643154027
ONEWEB-0560             
1 55145U 23004F   26049.25215355  .00000033  00000+0  50866-4 0  9992
2 55145  87.9230 359.0807 0001840  89.1465 270.9878 13.18684985154036
ONEWEB-0565             
1 55146U 23004G   26049.24555141 -.00000024  00000+0 -93979-4 0  9996
2 55146  87.9220 359.1212 0002277  87.3238 272.8155 13.18684772154022
ONEWEB-0567             
1 55147U 23004H   26049.23895773 -.00000043  00000+0 -14100-3 0  9993
2 55147  87.9229 359.0951 0002095  89.1093 271.0279 13.18684437154024
ONEWEB-0569             
1 55148U 23004J   26049.24725090  .00000116  00000+0  28311-3 0  9997
2 55148  87.9051 343.8576 0001961 108.0247 252.1096 13.13469144154562
ONEWEB-0570             
1 55149U 23004K   26049.22906311  .00000044  00000+0  79349-4 0  9991
2 55149  87.9226 359.0956 0002332  76.0746 284.0646 13.18685727154016
ONEWEB-0571             
1 55150U 23004L   26049.22246051  .00000004  00000+0 -22966-4 0  9991
2 55150  87.9224 359.0956 0002730 102.6371 257.5067 13.18684490154027
ONEWEB-0572             
1 55151U 23004M   26048.99580416  .00000021  00000+0  20561-4 0  9998
2 55151  87.9116  29.5410 0002069  88.2453 271.8915 13.17648822151786
ONEWEB-0573             
1 55152U 23004N   26049.21587002  .00000006  00000+0 -18387-4 0  9990
2 55152  87.9228 359.0988 0002618  87.9634 272.1798 13.18684547154016
ONEWEB-0588             
1 55153U 23004P   26048.75400279  .00000004  00000+0 -21886-4 0  9995
2 55153  87.9225 359.1912 0002334  79.3542 280.7853 13.18684694153952
ONEWEB-0598             
1 55154U 23004Q   26049.06099987  .00000292  00000+0  78781-3 0  9994
2 55154  87.8826  44.7680 0002069 103.9732 256.1626 13.11415588150283
ONEWEB-0599             
1 55155U 23004R   26048.50139155 -.00000982  00000+0 -25641-2 0  9999
2 55155  87.9110  29.6391 0001911  88.8798 271.2553 13.17640096151727
ONEWEB-0614             
1 55156U 23004S   26048.97961810  .00000508  00000+0  13966-2 0  9991
2 55156  87.8827  44.7926 0002051  77.4050 282.7307 13.11417389150213
ONEWEB-0616             
1 55157U 23004T   26048.84730802 -.00000003  00000+0 -39700-4 0  9991
2 55157  87.9130  29.5678 0001023 101.0251 259.0996 13.17647893151989
