[{"OBJECT_NAME":"ONEWEB-0533","OBJECT_ID":"2023-004B","EPOCH":"2026-02-17T11:02:33.141120","MEAN_MOTION":13.12443142,"ECCENTRICITY":0.00017701,"INCLINATION":87.8975,"RA_OF_ASC_NODE":14.4282,"ARG_OF_PERICENTER":77.6003,"MEAN_ANOMALY":282.5323,"EPHEMERIS_TYPE":0,"CLASSIFICATION_TYPE":"U","NORAD_CAT_ID":55141,"ELEMENT_SET_NO":999,"REV_AT_EPOCH":15235,"BSTAR":-0.0008560082,"MEAN_MOTION_DOT":-2.95e-6,"MEAN_MOTION_DDOT":0},{"OBJECT_NAME":"ONEWEB-0541","OBJECT_ID":"2023-004C","EPOCH":"2026-02-18T00:09:42.014592","MEAN_MOTION":13.11416367,"ECCENTRICITY":0.00020065,"INCLINATION":87.8832,"RA_OF_ASC_NODE":44.7566,"ARG_OF_PERICENTER":87.9853,"MEAN_ANOMALY":272.1505,"EPHEMERIS_TYPE":0,"CLASSIFICATION_TYPE":"U","NORAD_CAT_ID":55142,"ELEMENT_SET_NO":999,"REV_AT_EPOCH":15032,"BSTAR":-0.0012370801,"MEAN_MOTION_DOT":-4.26e-6,"MEAN_MOTION_DDOT":0},{"OBJECT_NAME":"ONEWEB-0543","OBJECT_ID":"2023-004D","EPOCH":"2026-02-18T06:22:06.749760","MEAN_MOTION":13.18685357,"ECCENTRICITY":0.00015827,"INCLINATION":87.9212,"RA_OF_ASC_NODE":359.094,"ARG_OF_PERICENTER":85.2983,"MEAN_ANOMALY":274.833,"EPHEMERIS_TYPE":0,"CLASSIFICATION_TYPE":"U","NORAD_CAT_ID":55143,"ELEMENT_SET_NO":999,"REV_AT_EPOCH":15402,"BSTAR":-3.5186782e-5,"MEAN_MOTION_DOT":-1.0e-8,"MEAN_MOTION_DDOT":0},{"OBJECT_NAME":"ONEWEB-0544","OBJECT_ID":"2023-004E","EPOCH":"2026-02-18T06:12:36.384480","MEAN_MOTION":13.18686643,"ECCENTRICITY":0.0001901,"INCLINATION":87.9226,"RA_OF_ASC_NODE":359.0896,"ARG_OF_PERICENTER":88.9429,"MEAN_ANOMALY":271.1921,"EPHEMERIS_TYPE":0,"CLASSIFICATION_TYPE":"U","NORAD_CAT_ID":55144,"ELEMENT_SET_NO":999,"REV_AT_EPOCH":15402,"BSTAR":0.00036080578,"MEAN_MOTION_DOT":1.55e-6,"MEAN_MOTION_DDOT":0},{"OBJECT_NAME":"ONEWEB-0560","OBJECT_ID":"2023-004F","EPOCH":"2026-02-18T06:03:06.066720","MEAN_MOTION":13.18684985,"ECCENTRICITY":0.00018402,"INCLINATION":87.923,"RA_OF_ASC_NODE":359.0807,"ARG_OF_PERICENTER":89.1465,"MEAN_ANOMALY":270.9878,"EPHEMERIS_TYPE":0,"CLASSIFICATION_TYPE":"U","NORAD_CAT_ID":55145,"ELEMENT_SET_NO":999,"REV_AT_EPOCH":15403,"BSTAR":5.0865724e-5,"MEAN_MOTION_DOT":3.3e-7,"MEAN_MOTION_DDOT":0},{"OBJECT_NAME":"ONEWEB-0565","OBJECT_ID":"2023-004G","EPOCH":"2026-02-18T05:53:35.641824","MEAN_MOTION":13.18684772,"ECCENTRICITY":0.00022774,"INCLINATION":87.922,"RA_OF_ASC_NODE":359.1212,"ARG_OF_PERICENTER":87.3238,"MEAN_ANOMALY":272.8155,"EPHEMERIS_TYPE":0,"CLASSIFICATION_TYPE":"U","NORAD_CAT_ID":55146,"ELEMENT_SET_NO":999,"REV_AT_EPOCH":15402,"BSTAR":-9.3979458e-5,"MEAN_MOTION_DOT":-2.4e-7,"MEAN_MOTION_DDOT":0},{"OBJECT_NAME":"ONEWEB-0567","OBJECT_ID":"2023-004H","EPOCH":"2026-02-18T05:44:05.947872","MEAN_MOTION":13.18684437,"ECCENTRICITY":0.00020953,"INCLINATION":87.9229,"RA_OF_ASC_NODE":359.0951,"ARG_OF_PERICENTER":89.1093,"MEAN_ANOMALY":271.0279,"EPHEMERIS_TYPE":0,"CLASSIFICATION_TYPE":"U","NORAD_CAT_ID":55147,"ELEMENT_SET_NO":999,"REV_AT_EPOCH":15402,"BSTAR":-0.00014100456,"MEAN_MOTION_DOT":-4.3e-7,"MEAN_MOTION_DDOT":0},{"OBJECT_NAME":"ONEWEB-0569","OBJECT_ID":"2023-004J","EPOCH":"2026-02-18T05:56:02.477760","MEAN_MOTION":13.13469144,"ECCENTRICITY":0.00019611,"INCLINATION":87.9051,"RA_OF_ASC_NODE":343.8576,"ARG_OF_PERICENTER":108.0247,"MEAN_ANOMALY":252.1096,"EPHEMERIS_TYPE":0,"CLASSIFICATION_TYPE":"U","NORAD_CAT_ID":55148,"ELEMENT_SET_NO":999,"REV_AT_EPOCH":15456,"BSTAR":0.00028310903,"MEAN_MOTION_DOT":1.16e-6,"MEAN_MOTION_DDOT":0},{"OBJECT_NAME":"ONEWEB-0570","OBJECT_ID":"2023-004K","EPOCH":"2026-02-18T05:29:51.052704","MEAN_MOTION":13.18685727,"ECCENTRICITY":0.00023321,"INCLINATION":87.9226,"RA_OF_ASC_NODE":359.0956,"ARG_OF_PERICENTER":76.0746,"MEAN_ANOMALY":284.0646,"EPHEMERIS_TYPE":0,"CLASSIFICATION_TYPE":"U","NORAD_CAT_ID":55149,"ELEMENT_SET_NO":999,"REV_AT_EPOCH":15401,"BSTAR":7.9349331e-5,"MEAN_MOTION_DOT":4.4e-7,"MEAN_MOTION_DDOT":0},{"OBJECT_NAME":"ONEWEB-0571","OBJECT_ID":"2023-004L","EPOCH":"2026-02-18T05:20:20.588064","MEAN_MOTION":13.1868449,"ECCENTRICITY":0.00027309,"INCLINATION":87.9224,"RA_OF_ASC_NODE":359.0956,"ARG_OF_PERICENTER":102.6371,"MEAN_ANOMALY":257.5067,"EPHEMERIS_TYPE":0,"CLASSIFICATION_TYPE":"U","NORAD_CAT_ID":55150,"ELEMENT_SET_NO":999,"REV_AT_EPOCH":15402,"BSTAR":-2.2966386e-5,"MEAN_MOTION_DOT":4.0e-8,"MEAN_MOTION_DDOT":0},{"OBJECT_NAME":"ONEWEB-0572","OBJECT_ID":"2023-004M","EPOCH":"2026-02-17T23:53:57.479424","MEAN_MOTION":13.17648822,"ECCENTRICITY":0.00020694,"INCLINATION":87.9116,"RA_OF_ASC_NODE":29.541,"ARG_OF_PERICENTER":88.2453,"MEAN_ANOMALY":271.8915,"EPHEMERIS_TYPE":0,"CLASSIFICATION_TYPE":"U","NORAD_CAT_ID":55151,"ELEMENT_SET_NO":999,"REV_AT_EPOCH":15178,"BSTAR":2.0560505e-5,"MEAN_MOTION_DOT":2.1e-7,"MEAN_MOTION_DDOT":0},{"OBJECT_NAME":"ONEWEB-0573","OBJECT_ID":"2023-004N","EPOCH":"2026-02-18T05:10:51.169728","MEAN_MOTION":13.18684547,"ECCENTRICITY":0.00026184,"INCLINATION":87.9228,"RA_OF_ASC_NODE":359.0988,"ARG_OF_PERICENTER":87.9634,"MEAN_ANOMALY":272.1798,"EPHEMERIS_TYPE":0,"CLASSIFICATION_TYPE":"U","NORAD_CAT_ID":55152,"ELEMENT_SET_NO":999,"REV_AT_EPOCH":15401,"BSTAR":-1.8386951e-5,"MEAN_MOTION_DOT":6.0e-8,"MEAN_MOTION_DDOT":0},{"OBJECT_NAME":"ONEWEB-0588","OBJECT_ID":"2023-004P","EPOCH":"2026-02-17T18:05:45.841056","MEAN_MOTION":13.18684694,"ECCENTRICITY":0.0002334,"INCLINATION":87.9225,"RA_OF_ASC_NODE":359.1912,"ARG_OF_PERICENTER":79.3542,"MEAN_ANOMALY":280.7853,"EPHEMERIS_TYPE":0,"CLASSIFICATION_TYPE":"U","NORAD_CAT_ID":55153,"ELEMENT_SET_NO":999,"REV_AT_EPOCH":15395,"BSTAR":-2.1886e-5,"MEAN_MOTION_DOT":4.0e-8,"MEAN_MOTION_DDOT":0},{"OBJECT_NAME":"ONEWEB-0598","OBJECT_ID":"2023-004Q","EPOCH":"2026-02-18T01:27:50.388768","MEAN_MOTION":13.11415588,"ECCENTRICITY":0.00020692,"INCLINATION":87.8826,"RA_OF_ASC_NODE":44.768,"ARG_OF_PERICENTER":103.9732,"MEAN_ANOMALY":256.1626,"EPHEMERIS_TYPE":0,"CLASSIFICATION_TYPE":"U","NORAD_CAT_ID":55154,"ELEMENT_SET_NO":999,"REV_AT_EPOCH":15028,"BSTAR":0.00078781243,"MEAN_MOTION_DOT":2.92e-6,"MEAN_MOTION_DDOT":0},{"OBJECT_NAME":"ONEWEB-0599","OBJECT_ID":"2023-004R","EPOCH":"2026-02-17T12:02:00.229920","MEAN_MOTION":13.17640096,"ECCENTRICITY":0.00019119,"INCLINATION":87.911,"RA_OF_ASC_NODE":29.6391,"ARG_OF_PERICENTER":88.8798,"MEAN_ANOMALY":271.2553,"EPHEMERIS_TYPE":0,"CLASSIFICATION_TYPE":"U","NORAD_CAT_ID":55155,"ELEMENT_SET_NO":999,"REV_AT_EPOCH":15172,"BSTAR":-0.0025641286,"MEAN_MOTION_DOT":-9.82e-6,"MEAN_MOTION_DDOT":0},{"OBJECT_NAME":"ONEWEB-0614","OBJECT_ID":"2023-004S","EPOCH":"2026-02-17T23:30:39.003840","MEAN_MOTION":13.11417389,"ECCENTRICITY":0.0002051,"INCLINATION":87.8827,"RA_OF_ASC_NODE":44.7926,"ARG_OF_PERICENTER":77.405,"MEAN_ANOMALY":282.7307,"EPHEMERIS_TYPE":0,"CLASSIFICATION_TYPE":"U","NORAD_CAT_ID":55156,"ELEMENT_SET_NO":999,"REV_AT_EPOCH":15021,"BSTAR":0.0013966,"MEAN_MOTION_DOT":5.08e-6,"MEAN_MOTION_DDOT":0},{"OBJECT_NAME":"ONEWEB-0616","OBJECT_ID":"2023-004T","EPOCH":"2026-02-17T20:20:07.412928","MEAN_MOTION":13.17647893,"ECCENTRICITY":0.0001023,"INCLINATION":87.913,"RA_OF_ASC_NODE":29.5678,"ARG_OF_PERICENTER":101.0251,"MEAN_ANOMALY":259.0996,"EPHEMERIS_TYPE":0,"CLASSIFICATION_TYPE":"U","NORAD_CAT_ID":55157,"ELEMENT_SET_NO":999,"REV_AT_EPOCH":15198,"BSTAR":-3.97e-5,"MEAN_MOTION_DOT":-3.0e-8,"MEAN_MOTION_DDOT":0}]
